CCSDS_OMM_VERS = 2.0
CREATION_DATE  = 
ORIGINATOR     = 

OBJECT_NAME    = STARLINK-36339
OBJECT_ID      = 2026-003G
CENTER_NAME    = EARTH
REF_FRAME      = TEME
TIME_SYSTEM    = UTC
MEAN_ELEMENT_THEORY = SGP/SGP4

EPOCH          = 2026-01-31T20:00:01.999008
MEAN_MOTION    = 15.53551390
ECCENTRICITY   = .0001484
INCLINATION    = 42.9999
RA_OF_ASC_NODE = 77.0823
ARG_OF_PERICENTER = 283.1573
MEAN_ANOMALY   = 150.5655

EPHEMERIS_TYPE = 0
CLASSIFICATION_TYPE = U
NORAD_CAT_ID   = 67340
ELEMENT_SET_NO = 999
REV_AT_EPOCH   = 475
BSTAR          = -.49572E-1
MEAN_MOTION_DOT = -.2824987E-1
MEAN_MOTION_DDOT = 0

CCSDS_OMM_VERS = 2.0
CREATION_DATE  = 
ORIGINATOR     = 

OBJECT_NAME    = STARLINK-36453
OBJECT_ID      = 2026-003H
CENTER_NAME    = EARTH
REF_FRAME      = TEME
TIME_SYSTEM    = UTC
MEAN_ELEMENT_THEORY = SGP/SGP4

EPOCH          = 2026-01-31T20:00:01.999008
MEAN_MOTION    = 15.53550442
ECCENTRICITY   = .0001443
INCLINATION    = 42.9998
RA_OF_ASC_NODE = 77.0768
ARG_OF_PERICENTER = 279.4801
MEAN_ANOMALY   = 156.1598

EPHEMERIS_TYPE = 0
CLASSIFICATION_TYPE = U
NORAD_CAT_ID   = 67341
ELEMENT_SET_NO = 999
REV_AT_EPOCH   = 475
BSTAR          = -.49977E-1
MEAN_MOTION_DOT = -.2844927E-1
MEAN_MOTION_DDOT = 0

CCSDS_OMM_VERS = 2.0
CREATION_DATE  = 
ORIGINATOR     = 

OBJECT_NAME    = STARLINK-36432
OBJECT_ID      = 2026-003J
CENTER_NAME    = EARTH
REF_FRAME      = TEME
TIME_SYSTEM    = UTC
MEAN_ELEMENT_THEORY = SGP/SGP4

EPOCH          = 2026-01-31T20:00:01.999008
MEAN_MOTION    = 15.53448928
ECCENTRICITY   = .0001056
INCLINATION    = 42.9999
RA_OF_ASC_NODE = 77.0731
ARG_OF_PERICENTER = 308.5189
MEAN_ANOMALY   = 129.0520

EPHEMERIS_TYPE = 0
CLASSIFICATION_TYPE = U
NORAD_CAT_ID   = 67342
ELEMENT_SET_NO = 999
REV_AT_EPOCH   = 474
BSTAR          = -.46029E-1
MEAN_MOTION_DOT = -.2638434E-1
MEAN_MOTION_DDOT = 0

CCSDS_OMM_VERS = 2.0
CREATION_DATE  = 
ORIGINATOR     = 

OBJECT_NAME    = STARLINK-36458
OBJECT_ID      = 2026-003K
CENTER_NAME    = EARTH
REF_FRAME      = TEME
TIME_SYSTEM    = UTC
MEAN_ELEMENT_THEORY = SGP/SGP4

EPOCH          = 2026-01-31T20:00:01.999008
MEAN_MOTION    = 15.53020816
ECCENTRICITY   = .0001412
INCLINATION    = 42.9996
RA_OF_ASC_NODE = 77.0683
ARG_OF_PERICENTER = 272.9134
MEAN_ANOMALY   = 166.6792

EPHEMERIS_TYPE = 0
CLASSIFICATION_TYPE = U
NORAD_CAT_ID   = 67343
ELEMENT_SET_NO = 999
REV_AT_EPOCH   = 475
BSTAR          = -.3501E-1
MEAN_MOTION_DOT = -.2004191E-1
MEAN_MOTION_DDOT = 0

CCSDS_OMM_VERS = 2.0
CREATION_DATE  = 
ORIGINATOR     = 

OBJECT_NAME    = STARLINK-36422
OBJECT_ID      = 2026-003L
CENTER_NAME    = EARTH
REF_FRAME      = TEME
TIME_SYSTEM    = UTC
MEAN_ELEMENT_THEORY = SGP/SGP4

EPOCH          = 2026-01-31T20:00:01.999008
MEAN_MOTION    = 15.53444782
ECCENTRICITY   = .0001011
INCLINATION    = 43.0000
RA_OF_ASC_NODE = 77.0627
ARG_OF_PERICENTER = 304.2724
MEAN_ANOMALY   = 137.1344

EPHEMERIS_TYPE = 0
CLASSIFICATION_TYPE = U
NORAD_CAT_ID   = 67344
ELEMENT_SET_NO = 999
REV_AT_EPOCH   = 474
BSTAR          = -.45942E-1
MEAN_MOTION_DOT = -.2633691E-1
MEAN_MOTION_DDOT = 0

CCSDS_OMM_VERS = 2.0
CREATION_DATE  = 
ORIGINATOR     = 

OBJECT_NAME    = STARLINK-35676
OBJECT_ID      = 2026-003M
CENTER_NAME    = EARTH
REF_FRAME      = TEME
TIME_SYSTEM    = UTC
MEAN_ELEMENT_THEORY = SGP/SGP4

EPOCH          = 2026-01-31T20:00:01.999008
MEAN_MOTION    = 15.53021082
ECCENTRICITY   = .0001522
INCLINATION    = 42.9998
RA_OF_ASC_NODE = 77.0583
ARG_OF_PERICENTER = 272.7822
MEAN_ANOMALY   = 170.6423

EPHEMERIS_TYPE = 0
CLASSIFICATION_TYPE = U
NORAD_CAT_ID   = 67345
ELEMENT_SET_NO = 999
REV_AT_EPOCH   = 474
BSTAR          = -.34897E-1
MEAN_MOTION_DOT = -.1998466E-1
MEAN_MOTION_DDOT = 0

CCSDS_OMM_VERS = 2.0
CREATION_DATE  = 
ORIGINATOR     = 

OBJECT_NAME    = STARLINK-36472
OBJECT_ID      = 2026-003N
CENTER_NAME    = EARTH
REF_FRAME      = TEME
TIME_SYSTEM    = UTC
MEAN_ELEMENT_THEORY = SGP/SGP4

EPOCH          = 2026-01-31T20:00:01.999008
MEAN_MOTION    = 15.53022385
ECCENTRICITY   = .0001445
INCLINATION    = 42.9999
RA_OF_ASC_NODE = 77.0537
ARG_OF_PERICENTER = 274.9693
MEAN_ANOMALY   = 170.3728

EPHEMERIS_TYPE = 0
CLASSIFICATION_TYPE = U
NORAD_CAT_ID   = 67346
ELEMENT_SET_NO = 999
REV_AT_EPOCH   = 474
BSTAR          = -.35036E-1
MEAN_MOTION_DOT = -.2005622E-1
MEAN_MOTION_DDOT = 0

CCSDS_OMM_VERS = 2.0
CREATION_DATE  = 
ORIGINATOR     = 

OBJECT_NAME    = STARLINK-36420
OBJECT_ID      = 2026-003P
CENTER_NAME    = EARTH
REF_FRAME      = TEME
TIME_SYSTEM    = UTC
MEAN_ELEMENT_THEORY = SGP/SGP4

EPOCH          = 2026-01-31T20:00:01.999008
MEAN_MOTION    = 15.53020732
ECCENTRICITY   = .0001436
INCLINATION    = 42.9999
RA_OF_ASC_NODE = 77.0435
ARG_OF_PERICENTER = 275.9875
MEAN_ANOMALY   = 173.1864

EPHEMERIS_TYPE = 0
CLASSIFICATION_TYPE = U
NORAD_CAT_ID   = 67347
ELEMENT_SET_NO = 999
REV_AT_EPOCH   = 475
BSTAR          = -.34839E-1
MEAN_MOTION_DOT = -.1995453E-1
MEAN_MOTION_DDOT = 0

CCSDS_OMM_VERS = 2.0
CREATION_DATE  = 
ORIGINATOR     = 

OBJECT_NAME    = STARLINK-36467
OBJECT_ID      = 2026-003Q
CENTER_NAME    = EARTH
REF_FRAME      = TEME
TIME_SYSTEM    = UTC
MEAN_ELEMENT_THEORY = SGP/SGP4

EPOCH          = 2026-01-31T20:00:01.999008
MEAN_MOTION    = 15.53016760
ECCENTRICITY   = .0001632
INCLINATION    = 42.9998
RA_OF_ASC_NODE = 77.0489
ARG_OF_PERICENTER = 272.8301
MEAN_ANOMALY   = 174.4283

EPHEMERIS_TYPE = 0
CLASSIFICATION_TYPE = U
NORAD_CAT_ID   = 67348
ELEMENT_SET_NO = 999
REV_AT_EPOCH   = 475
BSTAR          = -.3474E-1
MEAN_MOTION_DOT = -.1990222E-1
MEAN_MOTION_DDOT = 0

CCSDS_OMM_VERS = 2.0
CREATION_DATE  = 
ORIGINATOR     = 

OBJECT_NAME    = STARLINK-36457
OBJECT_ID      = 2026-003R
CENTER_NAME    = EARTH
REF_FRAME      = TEME
TIME_SYSTEM    = UTC
MEAN_ELEMENT_THEORY = SGP/SGP4

EPOCH          = 2026-01-31T20:00:01.999008
MEAN_MOTION    = 15.53017524
ECCENTRICITY   = .0001381
INCLINATION    = 43.0000
RA_OF_ASC_NODE = 77.0387
ARG_OF_PERICENTER = 274.4542
MEAN_ANOMALY   = 176.6407

EPHEMERIS_TYPE = 0
CLASSIFICATION_TYPE = U
NORAD_CAT_ID   = 67349
ELEMENT_SET_NO = 999
REV_AT_EPOCH   = 475
BSTAR          = -.34825E-1
MEAN_MOTION_DOT = -.1994456E-1
MEAN_MOTION_DDOT = 0

CCSDS_OMM_VERS = 2.0
CREATION_DATE  = 
ORIGINATOR     = 

OBJECT_NAME    = STARLINK-36475
OBJECT_ID      = 2026-003S
CENTER_NAME    = EARTH
REF_FRAME      = TEME
TIME_SYSTEM    = UTC
MEAN_ELEMENT_THEORY = SGP/SGP4

EPOCH          = 2026-01-31T20:00:01.999008
MEAN_MOTION    = 15.53021044
ECCENTRICITY   = .0001581
INCLINATION    = 42.9999
RA_OF_ASC_NODE = 77.0334
ARG_OF_PERICENTER = 277.9909
MEAN_ANOMALY   = 175.0187

EPHEMERIS_TYPE = 0
CLASSIFICATION_TYPE = U
NORAD_CAT_ID   = 67350
ELEMENT_SET_NO = 999
REV_AT_EPOCH   = 474
BSTAR          = -.34897E-1
MEAN_MOTION_DOT = -.1998495E-1
MEAN_MOTION_DDOT = 0

CCSDS_OMM_VERS = 2.0
CREATION_DATE  = 
ORIGINATOR     = 

OBJECT_NAME    = STARLINK-36478
OBJECT_ID      = 2026-003T
CENTER_NAME    = EARTH
REF_FRAME      = TEME
TIME_SYSTEM    = UTC
MEAN_ELEMENT_THEORY = SGP/SGP4

EPOCH          = 2026-01-31T20:00:01.999008
MEAN_MOTION    = 15.53452502
ECCENTRICITY   = .0000772
INCLINATION    = 42.9999
RA_OF_ASC_NODE = 77.0295
ARG_OF_PERICENTER = 312.4076
MEAN_ANOMALY   = 142.4184

EPHEMERIS_TYPE = 0
CLASSIFICATION_TYPE = U
NORAD_CAT_ID   = 67351
ELEMENT_SET_NO = 999
REV_AT_EPOCH   = 474
BSTAR          = -.46218E-1
MEAN_MOTION_DOT = -.264805E-1
MEAN_MOTION_DDOT = 0

