STARLINK-36339          
1 67340U 26003G   26031.83335647 -.02824987  00000+0 -49572-1 0  9991
2 67340  42.9999  77.0823 0001484 283.1573 150.5655 15.53551390  4757
STARLINK-36453          
1 67341U 26003H   26031.83335647 -.02844927  00000+0 -49977-1 0  9997
2 67341  42.9998  77.0768 0001443 279.4801 156.1598 15.53550442  4757
STARLINK-36432          
1 67342U 26003J   26031.83335647 -.02638434  00000+0 -46029-1 0  9997
2 67342  42.9999  77.0731 0001056 308.5189 129.0520 15.53448928  4740
STARLINK-36458          
1 67343U 26003K   26031.83335647 -.02004191  00000+0 -35010-1 0  9993
2 67343  42.9996  77.0683 0001412 272.9134 166.6792 15.53020816  4755
STARLINK-36422          
1 67344U 26003L   26031.83335647 -.02633691  00000+0 -45942-1 0  9992
2 67344  43.0000  77.0627 0001011 304.2724 137.1344 15.53444782  4748
STARLINK-35676          
1 67345U 26003M   26031.83335647 -.01998466  00000+0 -34897-1 0  9993
2 67345  42.9998  77.0583 0001522 272.7822 170.6423 15.53021082  4743
STARLINK-36472          
1 67346U 26003N   26031.83335647 -.02005622  00000+0 -35036-1 0  9994
2 67346  42.9999  77.0537 0001445 274.9693 170.3728 15.53022385  4740
STARLINK-36420          
1 67347U 26003P   26031.83335647 -.01995453  00000+0 -34839-1 0  9994
2 67347  42.9999  77.0435 0001436 275.9875 173.1864 15.53020732  4758
STARLINK-36467          
1 67348U 26003Q   26031.83335647 -.01990222  00000+0 -34740-1 0  9995
2 67348  42.9998  77.0489 0001632 272.8301 174.4283 15.53016760  4750
STARLINK-36457          
1 67349U 26003R   26031.83335647 -.01994456  00000+0 -34825-1 0  9993
2 67349  43.0000  77.0387 0001381 274.4542 176.6407 15.53017524  4751
STARLINK-36475          
1 67350U 26003S   26031.83335647 -.01998495  00000+0 -34897-1 0  9991
2 67350  42.9999  77.0334 0001581 277.9909 175.0187 15.53021044  4746
STARLINK-36478          
1 67351U 26003T   26031.83335647 -.02648050  00000+0 -46218-1 0  9992
2 67351  42.9999  77.0295 0000772 312.4076 142.4184 15.53452502  4746
